[{"OBJECT_NAME":"ONEWEB-0330","OBJECT_ID":"2021-075AK","EPOCH":"2026-03-08T20:55:25.864032","MEAN_MOTION":13.1717637,"ECCENTRICITY":0.00020924,"INCLINATION":87.9122,"RA_OF_ASC_NODE":25.7983,"ARG_OF_PERICENTER":57.8554,"MEAN_ANOMALY":302.278,"EPHEMERIS_TYPE":0,"CLASSIFICATION_TYPE":"U","NORAD_CAT_ID":49108,"ELEMENT_SET_NO":999,"REV_AT_EPOCH":22041,"BSTAR":-0.11986739,"MEAN_MOTION_DOT":-0.00045973,"MEAN_MOTION_DDOT":0},{"OBJECT_NAME":"COSMOS 2499 DEB","OBJECT_ID":"2014-028AR","EPOCH":"2026-03-08T16:30:44.028576","MEAN_MOTION":12.83466511,"ECCENTRICITY":0.02314502,"INCLINATION":82.4562,"RA_OF_ASC_NODE":320.1068,"ARG_OF_PERICENTER":234.9243,"MEAN_ANOMALY":122.9961,"EPHEMERIS_TYPE":0,"CLASSIFICATION_TYPE":"U","NORAD_CAT_ID":55729,"ELEMENT_SET_NO":999,"REV_AT_EPOCH":14716,"BSTAR":0.00025511886,"MEAN_MOTION_DOT":7.8e-7,"MEAN_MOTION_DDOT":0}]
